     2.100          NAVIGATION                              RINEX VERSION / TYPE
fic2rin                                 07/30/2011 00:12:28 PGM / RUN BY / DATE
                                                            END OF HEADER
 5 11  7 29 18  0  0.0 -.196363311261D-03 -.545696821064D-11  .000000000000D+00
     .460000000000D+02 -.354375000000D+02  .480091426306D-08  .182467152818D+01
    -.177696347237D-05  .227308331523D-02  .760890543461D-05  .515371371841D+04
     .496800000000D+06 -.391155481339D-07 -.952821289014D+00 -.633299350739D-07
     .953320250872D+00  .230281250000D+03  .158048446666D+00 -.809855162290D-08
    -.596810573842D-09  .100000000000D+01  .164600000000D+04  .000000000000D+00
     .240000000000D+01  .000000000000D+00 -.102445483208D-07  .460000000000D+02
     .489606000000D+06  .400000000000D+01
 6 11  7 29 18  0  0.0 -.111540313810D-03  .111413100967D-10  .000000000000D+00
     .760000000000D+02 -.564062500000D+02  .478484216502D-08  .195865923978D+01
    -.272504985332D-05  .675467983820D-02  .120270997286D-04  .515364458084D+04
     .496800000000D+06  .596046447754D-07 -.309984778295D+01  .447034835815D-07
     .936758218826D+00  .128750000000D+03 -.725732028418D+00 -.798961851397D-08
     .144648882349D-09  .100000000000D+01  .164600000000D+04  .000000000000D+00
     .240000000000D+01  .000000000000D+00 -.465661287308D-08  .760000000000D+02
     .489606000000D+06  .400000000000D+01
 7 11  7 29 18  0  0.0  .198427587748D-04  .159161572810D-11  .000000000000D+00
     .630000000000D+02  .840625000000D+02  .459662003910D-08 -.169804813157D+01
     .413320958614D-05  .476943340618D-02  .162608921528D-05  .515364395905D+04
     .496800000000D+06  .149011611938D-07  .115292460890D+01 -.949949026108D-07
     .974698864623D+00  .357531250000D+03 -.311882752851D+01 -.839999275056D-08
     .397159400426D-09  .100000000000D+01  .164600000000D+04  .000000000000D+00
     .240000000000D+01  .000000000000D+00 -.107102096081D-07  .630000000000D+02
     .489606000000D+06  .400000000000D+01
 8 11  7 29 18  0  0.0  .864407047629D-05  .113686837722D-12  .000000000000D+00
     .900000000000D+01  .697187500000D+02  .415338729097D-08 -.219580394679D+01
     .344775617123D-05  .118309718091D-01  .175461173058D-05  .515357563972D+04
     .496800000000D+06 -.124797224998D-06  .122979860013D+01 -.253319740295D-06
     .996433777924D+00  .370750000000D+03 -.306383177559D+01 -.812819571483D-08
     .374301305437D-09  .100000000000D+01  .164600000000D+04  .000000000000D+00
     .485000000000D+01  .000000000000D+00 -.419095158577D-08  .265000000000D+03
     .489606000000D+06  .400000000000D+01
 9 11  7 29 18  0  0.0  .958549790084D-04  .238742359215D-11  .000000000000D+00
     .690000000000D+02  .886250000000D+02  .421767568312D-08 -.242204298134D+01
     .466406345367D-05  .174067085609D-01  .143423676491D-05  .515366568947D+04
     .496800000000D+06  .180676579475D-06  .112494020026D+01  .160187482834D-06
     .983599442545D+00  .359156250000D+03  .159042615511D+01 -.792997317236D-08
     .435732435719D-09  .100000000000D+01  .164600000000D+04  .000000000000D+00
     .240000000000D+01  .000000000000D+00 -.558793544769D-08  .690000000000D+02
     .489606000000D+06  .400000000000D+01
10 11  7 29 18  0  0.0 -.832416117191D-05 -.125055521494D-11  .000000000000D+00
     .580000000000D+02 -.316875000000D+02  .490699011012D-08  .203647046849D+01
    -.168196856976D-05  .102541943779D-01  .795722007751D-05  .515361901855D+04
     .496800000000D+06 -.193715095520D-06 -.929492688850D+00 -.119209289551D-06
     .948271464570D+00  .220750000000D+03  .705042927456D+00 -.818498379457D-08
    -.595381942905D-09  .100000000000D+01  .164600000000D+04  .000000000000D+00
     .240000000000D+01  .000000000000D+00 -.232830643654D-08  .580000000000D+02
     .489606000000D+06  .400000000000D+01
11 11  7 29 18  0  0.0 -.172319822013D-03 -.329691829393D-11  .000000000000D+00
     .500000000000D+02  .394375000000D+02  .633740683558D-08 -.154621618997D+01
     .207498669624D-05  .119850821793D-01  .661052763462D-05  .515366014290D+04
     .496800000000D+06  .366941094398D-06 -.225593281154D+01 -.204890966415D-07
     .887895235006D+00  .211343750000D+03  .947567286027D+00 -.875250743421D-08
     .477519890620D-09  .100000000000D+01  .164600000000D+04  .000000000000D+00
     .240000000000D+01  .000000000000D+00 -.116415321827D-07  .500000000000D+02
     .489606000000D+06  .400000000000D+01
12 11  7 29 18  0  0.0  .123819336295D-04  .250111042988D-11  .000000000000D+00
     .640000000000D+02 -.122593750000D+03  .433232331580D-08 -.190569512605D+01
    -.637397170067D-05  .365397066344D-02  .460632145405D-05  .515370692253D+04
     .496800000000D+06 -.111758708954D-07  .220862184629D+01 -.173225998878D-06
     .975945627778D+00  .296468750000D+03 -.968924115464D-01 -.817962642856D-08
    -.298226708054D-09  .100000000000D+01  .164600000000D+04  .000000000000D+00
     .240000000000D+01  .000000000000D+00 -.121071934700D-07  .640000000000D+02
     .489606000000D+06  .400000000000D+01
13 11  7 29 18  0  0.0  .258861109614D-03 -.170530256582D-11  .000000000000D+00
     .102000000000D+03  .122875000000D+03  .355443377072D-08  .752372407399D+00
     .633485615253D-05  .471071642824D-02  .114738941193D-04  .515357338524D+04
     .496800000000D+06 -.335276126862D-07  .179072105289D+00 -.558793544769D-07
     .989455894215D+00  .170125000000D+03  .190880007165D+01 -.760745973838D-08
     .125719522437D-09  .100000000000D+01  .164600000000D+04  .000000000000D+00
     .340000000000D+01  .000000000000D+00 -.111758708954D-07  .102000000000D+03
     .489606000000D+06  .400000000000D+01
14 11  7 29 18  0  0.0  .164246186614D-03  .204636307899D-11  .000000000000D+00
     .320000000000D+02  .111781250000D+03  .373658421516D-08  .798187998271D+00
     .568106770515D-05  .602561351843D-02  .107046216726D-04  .515369808197D+04
     .496800000000D+06 -.931322574615D-07  .154468573482D+00  .260770320892D-07
     .982452446014D+00  .182968750000D+03 -.211190496296D+01 -.767960560068D-08
     .221437795202D-10  .100000000000D+01  .164600000000D+04  .000000000000D+00
     .240000000000D+01  .000000000000D+00 -.884756445885D-08  .320000000000D+02
     .489606000000D+06  .400000000000D+01
15 11  7 29 18  0  0.0 -.113375950605D-03  .193267624127D-11  .000000000000D+00
     .450000000000D+02  .852500000000D+02  .443268463911D-08  .426751321963D+00
     .456161797047D-05  .348657520954D-02  .114310532808D-04  .515365802956D+04
     .496800000000D+06  .894069671631D-07  .766602662135D-01 -.130385160446D-07
     .949542270784D+00  .152937500000D+03 -.635495022233D-01 -.795461705602D-08
    -.500020827875D-11  .100000000000D+01  .164600000000D+04  .000000000000D+00
     .240000000000D+01  .000000000000D+00 -.102445483208D-07  .450000000000D+02
     .489606000000D+06  .400000000000D+01
16 11  7 29 18  0  0.0 -.188494566828D-03 -.238742359215D-11  .000000000000D+00
     .670000000000D+02 -.135781250000D+03  .436125309227D-08  .201520874775D+01
    -.676885247231D-05  .633430154994D-02  .533834099770D-05  .515385602760D+04
     .496800000000D+06  .279396772385D-07  .222652167156D+01  .212341547012D-06
     .976937726155D+00  .286312500000D+03 -.670863875602D-01 -.815176812529D-08
    -.427517807833D-09  .100000000000D+01  .164600000000D+04  .000000000000D+00
     .240000000000D+01  .000000000000D+00 -.977888703346D-08  .670000000000D+02
     .489606000000D+06  .400000000000D+01
17 11  7 29 18  0  0.0  .180928502232D-03 -.113686837722D-11  .000000000000D+00
     .310000000000D+02 -.579375000000D+02  .426267755763D-08  .104684549606D+01
    -.286661088467D-05  .640217633918D-02  .121127814054D-04  .515379604912D+04
     .496800000000D+06 -.149011611938D-07 -.301468009952D+01  .113621354103D-06
     .961971219860D+00  .149406250000D+03 -.239346412326D+01 -.784389815841D-08
     .212866009581D-09  .100000000000D+01  .164600000000D+04  .000000000000D+00
     .240000000000D+01  .000000000000D+00 -.107102096081D-07  .310000000000D+02
     .489606000000D+06  .400000000000D+01
19 11  7 29 18  0  0.0 -.167300924659D-03 -.409272615798D-11  .000000000000D+00
     .780000000000D+02 -.440937500000D+02  .438553981819D-08  .415806779770D+00
    -.234507024288D-05  .754062796477D-02  .118557363749D-04  .515368845177D+04
     .496800000000D+06  .875443220139D-07 -.296085866312D+01  .763684511185D-07
     .959443872346D+00  .145218750000D+03  .583056387210D-01 -.790175771135D-08
     .292869342041D-09  .100000000000D+01  .164600000000D+04  .000000000000D+00
     .240000000000D+01  .000000000000D+00 -.144354999065D-07  .780000000000D+02
     .489606000000D+06  .400000000000D+01
20 11  7 29 18  0  0.0  .511719845235D-04  .341060513165D-12  .000000000000D+00
     .990000000000D+02 -.291875000000D+02  .519271629748D-08  .291218092130D+01
    -.146217644215D-05  .448073504958D-02  .741891562939D-05  .515361365509D+04
     .496800000000D+06  .502914190292D-07 -.989927549244D+00  .335276126862D-07
     .932322624877D+00  .220343750000D+03  .128308504006D+01 -.820248452355D-08
    -.545737017852D-09  .100000000000D+01  .164600000000D+04  .000000000000D+00
     .240000000000D+01  .000000000000D+00 -.745058059692D-08  .990000000000D+02
     .489606000000D+06  .400000000000D+01
21 11  7 29 18  0  0.0 -.161152798682D-03 -.250111042988D-11  .000000000000D+00
     .130000000000D+02  .307812500000D+02  .541808282775D-08 -.260859492387D+01
     .143051147461D-05  .180335185723D-01  .523589551449D-05  .515372612572D+04
     .496800000000D+06  .150874257088D-06 -.199007999178D+01 -.227242708206D-06
     .931350629921D+00  .261468750000D+03 -.234101795275D+01 -.825391523727D-08
     .436089593453D-09  .100000000000D+01  .164600000000D+04  .000000000000D+00
     .240000000000D+01  .000000000000D+00 -.116415321827D-07  .130000000000D+02
     .489606000000D+06  .400000000000D+01
